{
    "links": {
        "self": "http://www.neowsapp.com/rest/v1/neo/3843900?api_key=iIulBulltgU6a56xZRHN4H3l9WmuAYTsLGpBGhQ2"
    },
    "id": "3843900",
    "neo_reference_id": "3843900",
    "name": "(2019 SA1)",
    "designation": "2019 SA1",
    "nasa_jpl_url": "http://ssd.jpl.nasa.gov/sbdb.cgi?sstr=3843900",
    "absolute_magnitude_h": 26.3,
    "estimated_diameter": {
        "kilometers": {
            "estimated_diameter_min": 0.0146067964,
            "estimated_diameter_max": 0.0326617897
        },
        "meters": {
            "estimated_diameter_min": 14.6067964271,
            "estimated_diameter_max": 32.6617897446
        },
        "miles": {
            "estimated_diameter_min": 0.0090762397,
            "estimated_diameter_max": 0.020295089
        },
        "feet": {
            "estimated_diameter_min": 47.92256199,
            "estimated_diameter_max": 107.1581062656
        }
    },
    "is_potentially_hazardous_asteroid": false,
    "close_approach_data": [
        {
            "close_approach_date": "2019-09-12",
            "close_approach_date_full": "2019-Sep-12 22:19",
            "epoch_date_close_approach": 1568326740000,
            "relative_velocity": {
                "kilometers_per_second": "7.869496232",
                "kilometers_per_hour": "28330.1864352707",
                "miles_per_hour": "17603.2761214047"
            },
            "miss_distance": {
                "astronomical": "0.0419295432",
                "lunar": "16.3105923048",
                "kilometers": "6272570.352792984",
                "miles": "3897594.4833678192"
            },
            "orbiting_body": "Earth"
        }
    ],
    "orbital_data": {
        "orbit_id": "1",
        "orbit_determination_date": "2019-09-20 22:42:06",
        "first_observation_date": "2019-09-17",
        "last_observation_date": "2019-09-21",
        "data_arc_in_days": 4,
        "observations_used": 17,
        "orbit_uncertainty": "8",
        "minimum_orbit_intersection": ".0412135",
        "jupiter_tisserand_invariant": "4.542",
        "epoch_osculation": "2458744.5",
        "eccentricity": ".3249431514787979",
        "semi_major_axis": "1.466168791802927",
        "inclination": "8.425752746533446",
        "ascending_node_longitude": "180.5284053506526",
        "orbital_period": "648.4468478902867",
        "perihelion_distance": ".9897472839946221",
        "perihelion_argument": "133.7493677198281",
        "aphelion_distance": "1.942590299611231",
        "perihelion_time": "2458708.298690994550",
        "mean_anomaly": "20.09797917032518",
        "mean_motion": ".5551727195085538",
        "equinox": "J2000",
        "orbit_class": {
            "orbit_class_type": "APO",
            "orbit_class_description": "Near-Earth asteroid orbits which cross the Earth’s orbit similar to that of 1862 Apollo",
            "orbit_class_range": "a (semi-major axis) > 1.0 AU; q (perihelion) < 1.017 AU"
        }
    },
    "is_sentry_object": false
}